$$SOE
2460721.500000000, A.D. 2025-Feb-15 00:00:00.0000, -7.860532033894612E+07, 3.851326866718270E+08, -3.701315257597770E+07,
2460728.500000000, A.D. 2025-Feb-22 00:00:00.0000, -8.952334638273892E+07, 3.850712260717039E+08, -3.478296638117002E+07,
2460735.500000000, A.D. 2025-Mar-01 00:00:00.0000, -1.003717544107956E+08, 3.847108708543851E+08, -3.252574462603776E+07,
2460742.500000000, A.D. 2025-Mar-08 00:00:00.0000, -1.111433112383975E+08, 3.840564774527190E+08, -3.024362954455584E+07,
2460749.500000000, A.D. 2025-Mar-15 00:00:00.0000, -1.218310665123841E+08, 3.831130045948603E+08, -2.793871950066411E+07,
2460756.500000000, A.D. 2025-Mar-22 00:00:00.0000, -1.324283481375672E+08, 3.818855009010986E+08, -2.561306835017370E+07,
2460763.500000000, A.D. 2025-Mar-29 00:00:00.0000, -1.429287560840281E+08, 3.803790910953344E+08, -2.326868528251287E+07,
2460770.500000000, A.D. 2025-Apr-05 00:00:00.0000, -1.533261543121704E+08, 3.785989639372017E+08, -2.090753489952615E+07,
2460777.500000000, A.D. 2025-Apr-12 00:00:00.0000, -1.636146627939645E+08, 3.765503619470978E+08, -1.853153733142485E+07,
2460784.500000000, A.D. 2025-Apr-19 00:00:00.0000, -1.737886498638463E+08, 3.742385720065404E+08, -1.614256843015966E+07,
2460791.500000000, A.D. 2025-Apr-26 00:00:00.0000, -1.838427246701121E+08, 3.716689165940074E+08, -1.374246006811234E+07,
2460798.500000000, A.D. 2025-May-03 00:00:00.0000, -1.937717296511602E+08, 3.688467456394001E+08, -1.133300053847197E+07,
2460805.500000000, A.D. 2025-May-10 00:00:00.0000, -2.035707330414551E+08, 3.657774289702937E+08, -8.915935047667503E+06,
2460812.500000000, A.D. 2025-May-17 00:00:00.0000, -2.132350213997088E+08, 3.624663492738988E+08, -6.492966295886040E+06,
2460819.500000000, A.D. 2025-May-24 00:00:00.0000, -2.227600920107383E+08, 3.589188954857394E+08, -4.065755156181231E+06,
2460826.500000000, A.D. 2025-May-31 00:00:00.0000, -2.321416447653076E+08, 3.551404568821229E+08, -1.635921455941841E+06,
2460833.500000000, A.D. 2025-Jun-07 00:00:00.0000, -2.413755739386665E+08, 3.511364190487852E+08, 7.949552828319669E+05,
2460840.500000000, A.D. 2025-Jun-14 00:00:00.0000, -2.504579622492047E+08, 3.469121610293860E+08, 3.225335314294964E+06,
2460847.500000000, A.D. 2025-Jun-21 00:00:00.0000, -2.593850759913243E+08, 3.424730503524620E+08, 5.653717978721216E+06,
2460854.500000000, A.D. 2025-Jun-28 00:00:00.0000, -2.681533581240197E+08, 3.378244376684376E+08, 8.078640715726152E+06,
2460861.500000000, A.D. 2025-Jul-05 00:00:00.0000, -2.767594208438070E+08, 3.329716531252329E+08, 1.049867810174637E+07,
2460868.500000000, A.D. 2025-Jul-12 00:00:00.0000, -2.852000388409041E+08, 3.279200036529443E+08, 1.291244096023272E+07,
2460875.500000000, A.D. 2025-Jul-19 00:00:00.0000, -2.934721430535963E+08, 3.226747705574552E+08, 1.531857548495667E+07,
2460882.500000000, A.D. 2025-Jul-26 00:00:00.0000, -3.015728147144454E+08, 3.172412073417903E+08, 1.771576235689563E+07,
2460889.500000000, A.D. 2025-Aug-02 00:00:00.0000, -3.094992796256853E+08, 3.116245377537932E+08, 2.010271585434569E+07,
2460896.500000000, A.D. 2025-Aug-09 00:00:00.0000, -3.172489026420620E+08, 3.058299540239417E+08, 2.247818295640250E+07,
2460903.500000000, A.D. 2025-Aug-16 00:00:00.0000, -3.248191822848162E+08, 2.998626152098441E+08, 2.484094243072513E+07,
2460910.500000000, A.D. 2025-Aug-23 00:00:00.0000, -3.322077451939228E+08, 2.937276456447584E+08, 2.718980388292348E+07,
2460917.500000000, A.D. 2025-Aug-30 00:00:00.0000, -3.394123400888518E+08, 2.874301341859564E+08, 2.952360679829274E+07,
2460924.500000000, A.D. 2025-Sep-06 00:00:00.0000, -3.464308326556398E+08, 2.809751352464820E+08, 3.184121979002279E+07,
2460931.500000000, A.D. 2025-Sep-13 00:00:00.0000, -3.532612030304632E+08, 2.743676691135846E+08, 3.414154000637269E+07,
2460938.500000000, A.D. 2025-Sep-20 00:00:00.0000, -3.599015426021221E+08, 2.676127198958364E+08, 3.642349226412036E+07,
2460945.500000000, A.D. 2025-Sep-27 00:00:00.0000, -3.663500490701171E+08, 2.607152341948282E+08, 3.868602806702332E+07,
2460952.500000000, A.D. 2025-Oct-04 00:00:00.0000, -3.726050217730823E+08, 2.536801210279187E+08, 4.092812473966269E+07,
2460959.500000000, A.D. 2025-Oct-11 00:00:00.0000, -3.786648576573048E+08, 2.465122520488662E+08, 4.314878463493766E+07,
2460966.500000000, A.D. 2025-Oct-18 00:00:00.0000, -3.845280475953945E+08, 2.392164617807032E+08, 4.534703436737517E+07,
2460973.500000000, A.D. 2025-Oct-25 00:00:00.0000, -3.901931729097446E+08, 2.317975478596812E+08, 4.752192406059860E+07,
2460980.500000000, A.D. 2025-Nov-01 00:00:00.0000, -3.956589020573868E+08, 2.242602712941750E+08, 4.967252660675377E+07,
2460987.500000000, A.D. 2025-Nov-08 00:00:00.0000, -4.009239874394515E+08, 2.166093566974465E+08, 5.179793693242469E+07,
2460994.500000000, A.D. 2025-Nov-15 00:00:00.0000, -4.059872621855563E+08, 2.088494924283130E+08, 5.389727125307836E+07,
2461001.500000000, A.D. 2025-Nov-22 00:00:00.0000, -4.108476365077052E+08, 2.009853308538792E+08, 5.596966629741067E+07,
2461008.500000000, A.D. 2025-Nov-29 00:00:00.0000, -4.155040937731340E+08, 1.930214898636146E+08, 5.801427860851648E+07,
2461015.500000000, A.D. 2025-Dec-06 00:00:00.0000, -4.199556885701529E+08, 1.849625554931265E+08, 6.003028411969682E+07,
2461022.500000000, A.D. 2025-Dec-13 00:00:00.0000, -4.242015463300281E+08, 1.768130822829855E+08, 6.201687768981940E+07,
2461029.500000000, A.D. 2025-Dec-20 00:00:00.0000, -4.282408610055130E+08, 1.685775923911047E+08, 6.397327236120309E+07,
2461036.500000000, A.D. 2025-Dec-27 00:00:00.0000, -4.320728918739182E+08, 1.602605760431969E+08, 6.589869864973685E+07,
2461043.500000000, A.D. 2026-Jan-03 00:00:00.0000, -4.356969609213985E+08, 1.518664927002953E+08, 6.779240395064639E+07,
2461050.500000000, A.D. 2026-Jan-10 00:00:00.0000, -4.391124506962819E+08, 1.433997722611870E+08, 6.965365199448135E+07,
2461057.500000000, A.D. 2026-Jan-17 00:00:00.0000, -4.423188023954191E+08, 1.348648162053146E+08, 7.148172232452682E+07,
2461064.500000000, A.D. 2026-Jan-24 00:00:00.0000, -4.453155141020849E+08, 1.262659986958976E+08, 7.327590979030506E+07,
2461071.500000000, A.D. 2026-Jan-31 00:00:00.0000, -4.481021391487820E+08, 1.176076676332423E+08, 7.503552405438694E+07,
2461078.500000000, A.D. 2026-Feb-07 00:00:00.0000, -4.506782845404581E+08, 1.088941455986784E+08, 7.675988910218078E+07,
2461085.500000000, A.D. 2026-Feb-14 00:00:00.0000, -4.530436091821350E+08, 1.001297306719598E+08, 7.844834273020297E+07,
2461092.500000000, A.D. 2026-Feb-21 00:00:00.0000, -4.551978215202619E+08, 9.131869769741963E+07, 8.010023602430119E+07,
2461099.500000000, A.D. 2026-Feb-28 00:00:00.0000, -4.571406776796036E+08, 8.246530115032247E+07, 8.171493302133495E+07,
2461106.500000000, A.D. 2026-Mar-07 00:00:00.0000, -4.588719821524268E+08, 7.357377765131296E+07, 8.329181058365786E+07,
2461113.500000000, A.D. 2026-Mar-14 00:00:00.0000, -4.603915882626709E+08, 6.464834579524289E+07, 8.483025804121932E+07,
2461120.500000000, A.D. 2026-Mar-21 00:00:00.0000, -4.616993966180578E+08, 5.569320619114549E+07, 8.632967667405543E+07,
2461127.500000000, A.D. 2026-Mar-28 00:00:00.0000, -4.627953535556846E+08, 4.671254273875250E+07, 8.778947930278425E+07,
2461134.500000000, A.D. 2026-Apr-04 00:00:00.0000, -4.636794501838560E+08, 3.771052417269716E+07, 8.920908996352018E+07,
2461141.500000000, A.D. 2026-Apr-11 00:00:00.0000, -4.643517217460576E+08, 2.869130551260392E+07, 9.058794361308858E+07,
2461148.500000000, A.D. 2026-Apr-18 00:00:00.0000, -4.648122471470106E+08, 1.965902941108181E+07, 9.192548584982808E+07,
2461155.500000000, A.D. 2026-Apr-25 00:00:00.0000, -4.650611485938976E+08, 1.061782741310529E+07, 9.322117264737932E+07,
2461162.500000000, A.D. 2026-May-02 00:00:00.0000, -4.650985913209636E+08, 1.571821096035969E+06, 9.447447009659916E+07,
2461169.500000000, A.D. 2026-May-09 00:00:00.0000, -4.649247832718197E+08, -7.474876976939388E+06, 9.568485413908973E+07,
2461176.500000000, A.D. 2026-May-16 00:00:00.0000, -4.645399743604253E+08, -1.651816235251325E+07, 9.685181026922914E+07,
2461183.500000000, A.D. 2026-May-23 00:00:00.0000, -4.639444552577844E+08, -2.555393681064702E+07, 9.797483328361355E+07,
2461190.500000000, A.D. 2026-May-30 00:00:00.0000, -4.631385577820809E+08, -3.457810519732012E+07, 9.905342729472111E+07,
2461197.500000000, A.D. 2026-Jun-06 00:00:00.0000, -4.621226572102674E+08, -4.358657424127504E+07, 1.000871057707462E+08,
2461204.500000000, A.D. 2026-Jun-13 00:00:00.0000, -4.608971728456104E+08, -5.257525315529942E+07, 1.010753912819372E+08,
2461211.500000000, A.D. 2026-Jun-20 00:00:00.0000, -4.594625673397986E+08, -6.154005309510877E+07, 1.020178152377593E+08,
2461218.500000000, A.D. 2026-Jun-27 00:00:00.0000, -4.578193464649504E+08, -7.047688581692784E+07, 1.029139177415793E+08,
2461225.500000000, A.D. 2026-Jul-04 00:00:00.0000, -4.559680593345593E+08, -7.938166231129017E+07, 1.037632474987825E+08,
2461232.500000000, A.D. 2026-Jul-11 00:00:00.0000, -4.539092988200459E+08, -8.825029154762293E+07, 1.045653617441885E+08,
2461239.500000000, A.D. 2026-Jul-18 00:00:00.0000, -4.516437020717523E+08, -9.707867930612177E+07, 1.053198261827897E+08,
2461246.500000000, A.D. 2026-Jul-25 00:00:00.0000, -4.491719511220064E+08, -1.058627270958001E+08, 1.060262149424958E+08,
2461253.500000000, A.D. 2026-Aug-01 00:00:00.0000, -4.464947735242014E+08, -1.145983312077782E+08, 1.066841105312399E+08,
2461260.500000000, A.D. 2026-Aug-08 00:00:00.0000, -4.436129428145767E+08, -1.232813819402649E+08, 1.072931037763240E+08,
2461267.500000000, A.D. 2026-Aug-15 00:00:00.0000, -4.405272783826365E+08, -1.319077625454136E+08, 1.078527937450228E+08,
2461274.500000000, A.D. 2026-Aug-22 00:00:00.0000, -4.372386455116886E+08, -1.404733466776775E+08, 1.083627878161289E+08,
2461281.500000000, A.D. 2026-Aug-29 00:00:00.0000, -4.337479578793119E+08, -1.489739957182891E+08, 1.088227020003743E+08,
2461288.500000000, A.D. 2026-Sep-05 00:00:00.0000, -4.300561803864165E+08, -1.574055588464086E+08, 1.092321610804596E+08,
$$EOE